[{"OBJECT_NAME":"STARLINK-35492","OBJECT_ID":"2025-225S","EPOCH":"2026-03-09T12:08:43.736928","MEAN_MOTION":15.30212672,"ECCENTRICITY":0.00010603,"INCLINATION":53.1591,"RA_OF_ASC_NODE":166.2683,"ARG_OF_PERICENTER":123.8936,"MEAN_ANOMALY":236.2166,"EPHEMERIS_TYPE":0,"CLASSIFICATION_TYPE":"U","NORAD_CAT_ID":65926,"ELEMENT_SET_NO":999,"REV_AT_EPOCH":2438,"BSTAR":0.00080433706,"MEAN_MOTION_DOT":0.00023548,"MEAN_MOTION_DDOT":0},{"OBJECT_NAME":"COSMOS 1328","OBJECT_ID":"1981-117A","EPOCH":"2026-03-09T17:51:53.113536","MEAN_MOTION":15.33902077,"ECCENTRICITY":0.00108717,"INCLINATION":82.4939,"RA_OF_ASC_NODE":350.453,"ARG_OF_PERICENTER":167.9725,"MEAN_ANOMALY":192.1779,"EPHEMERIS_TYPE":0,"CLASSIFICATION_TYPE":"U","NORAD_CAT_ID":12987,"ELEMENT_SET_NO":999,"REV_AT_EPOCH":41406,"BSTAR":0.00040501644,"MEAN_MOTION_DOT":0.00013342,"MEAN_MOTION_DDOT":0}]
